# 汤加火山爆发
> 参考时间：2022年1月15日 04:00UTC

### 91792自动站【NFTF, Fua'Amotu (Tonga)】报文
```
SPECI NFTF 150505Z 31009KT 9999 TS FEW009 SCT016CB 28/26 Q1008 RMK VA CLD OVER TBU,RAIN ROCK=
```

### 卫星云图
没法发视频。参见[卫星云图](https://github.com/GatoNaranja/Images/blob/main/2022-01-15-23-02-07.mp4)视频

预览图

![捕获](https://user-images.githubusercontent.com/76199161/149628051-936931d7-44a2-41c1-9875-cbd78561d3f2.PNG)

### 冲击波抵达中国
![cc5c304e251f95ca9ae111af94177f3e6709526d](https://user-images.githubusercontent.com/76199161/149628099-29c1d8ec-f190-4c69-885f-b8cbc7da52f8.jpg)

### 参考实拍
![汤加火山爆发](https://user-images.githubusercontent.com/76199161/149627196-07cebd4e-a506-40e8-b0c4-8caa14c359cb.jpg)
